IRIDIUM 166             
1 43570U 18061B   25262.17456603  .00000025  00000+0  18533-5 0  9995
2 43570  86.4045 170.0121 0002212  78.7834 281.3611 14.34217746374559
IRIDIUM 158             
1 43571U 18061C   25262.21261938  .00000172  00000+0  54521-4 0  9995
2 43571  86.4045 170.0063 0002220  88.7578 271.3873 14.34218980374527
IRIDIUM 165             
1 43572U 18061D   25262.16822351 -.00000057  00000+0 -27366-4 0  9993
2 43572  86.4047 170.0656 0002097  79.8204 280.3228 14.34217225374544
IRIDIUM 155             
1 43573U 18061E   25261.78132542  .00000050  00000+0  10823-4 0  9998
2 43573  86.4042 170.1100 0002405  85.3925 274.7546 14.34217818374458
IRIDIUM 154             
1 43574U 18061F   25262.18090719  .00000077  00000+0  20582-4 0  9995
2 43574  86.4046 170.0632 0002209  82.1585 277.9861 14.34217401374566
IRIDIUM 163             
1 43575U 18061G   25261.81303797 -.00000003  00000+0 -82189-5 0  9991
2 43575  86.4043 170.1403 0002067  88.4418 271.7014 14.34217636374480
IRIDIUM 156             
1 43576U 18061H   25262.20627958 -.00000051  00000+0 -25103-4 0  9999
2 43576  86.4047 169.9836 0002441  83.4600 276.6874 14.34217365374538
IRIDIUM 164             
1 43577U 18061J   25262.18725033  .00000021  00000+0  37029-6 0  9997
2 43577  86.4044 170.0273 0002077  77.9185 282.2243 14.34217864374576
